[{"OBJECT_NAME":"HULIANWANG DIGUI-132","OBJECT_ID":"2025-311E","EPOCH":"2026-03-09T16:35:10.958784","MEAN_MOTION":13.29331042,"ECCENTRICITY":3.93e-6,"INCLINATION":50.0055,"RA_OF_ASC_NODE":112.7074,"ARG_OF_PERICENTER":260.3973,"MEAN_ANOMALY":99.6895,"EPHEMERIS_TYPE":0,"CLASSIFICATION_TYPE":"U","NORAD_CAT_ID":67240,"ELEMENT_SET_NO":999,"REV_AT_EPOCH":1010,"BSTAR":9.8283371e-5,"MEAN_MOTION_DOT":-7.8e-7,"MEAN_MOTION_DDOT":0},{"OBJECT_NAME":"DELTA 1 DEB","OBJECT_ID":"1975-052AH","EPOCH":"2026-03-09T11:30:39.705408","MEAN_MOTION":13.10670584,"ECCENTRICITY":0.02366064,"INCLINATION":99.5712,"RA_OF_ASC_NODE":256.106,"ARG_OF_PERICENTER":138.0613,"MEAN_ANOMALY":281.6901,"EPHEMERIS_TYPE":0,"CLASSIFICATION_TYPE":"U","NORAD_CAT_ID":21296,"ELEMENT_SET_NO":999,"REV_AT_EPOCH":66323,"BSTAR":0.00038677241,"MEAN_MOTION_DOT":1.19e-6,"MEAN_MOTION_DDOT":0}]
